STARLINK-31345          
1 58941U 24027L   24066.75001157 -.00031833  00000+0 -11399-2 0  9990
2 58941  53.1600 112.1488 0000805  98.2861  95.4268 15.28066944  5077
STARLINK-31354          
1 58942U 24027M   24067.25002315 -.00144929  00000+0 -53027-2 0  9999
2 58942  53.1602 109.8294 0001246  95.6825 331.9886 15.28141264  5050
STARLINK-31346          
1 58943U 24027N   24067.58334491  .00098393  00000+0  35267-2 0  9996
2 58943  53.1595 108.2397 0000767  62.3824  63.7589 15.27938927  5055
STARLINK-31336          
1 58944U 24027P   24067.58334491  .00035391  00000+0  12863-2 0  9993
2 58944  53.1594 108.2358 0001387  74.3759  53.6470 15.27967929  5108
STARLINK-31359          
1 58945U 24027Q   24062.12713588 -.00500129  00000+0 -71467-2 0  9990
2 58945  53.1597 132.7253 0005592 344.8511  15.2333 15.57285781  4441
STARLINK-31331          
1 58946U 24027R   24061.16668981 -.00028991  00000+0 -62173-3 0  9997
2 58946  53.1588 138.3423 0001148 130.5885 116.2104 15.43891672  4074
STARLINK-31116          
1 58947U 24027S   24068.50001157 -.00042470  00000+0 -15294-2 0  9998
2 58947  53.1587 103.9412 0001520  89.0819  69.9478 15.28019356  4992
STARLINK-31311          
1 58948U 24027T   24061.66667824  .00033545  00000+0  73433-3 0  9999
2 58948  53.1583 135.9657 0000926  79.2298  71.8905 15.43842969  3881
STARLINK-31294          
1 58949U 24027U   24063.25002315 -.00009396  00000+0 -19499-3 0  9996
2 58949  53.1591 128.4511 0001386  86.0705 231.9844 15.43868969  4449
STARLINK-31330          
1 58951U 24027W   24062.41667824 -.00062807  00000+0 -13639-2 0  9993
2 58951  53.1584 132.3923 0001282  84.1072 285.4474 15.43883831  4376
STARLINK-31293          
1 58952U 24027X   24064.08334491 -.01924582  00000+0 -45696-1 0  9995
2 58952  53.1593 124.4949 0001075  86.7601 187.2962 15.44449337  4554
STARLINK-31373          
1 58965U 24031A   24068.16668981 -.02209894  00000+0 -73202-1 0  9998
2 58965  53.1599  94.0183 0001105  95.5549 182.1792 15.34318714  4535
STARLINK-31449          
1 58966U 24031B   24068.16668981 -.02212460  00000+0 -73266-1 0  9992
2 58966  53.1600  94.0148 0001009 102.1394 177.4005 15.34332616  4537
STARLINK-31314          
1 58967U 24031C   24067.72361644 -.00970028  00000+0 -26957-1 0  9994
2 58967  53.1603  96.0667 0001193 111.4846 248.6286 15.39163466  4473
STARLINK-31356          
1 58968U 24031D   24067.56310190 -.00443564  00000+0 -97709-2 0  9991
2 58968  53.1600  96.4879 0001340  61.5808 298.5334 15.45064966  4400
STARLINK-31335          
1 58969U 24031E   24066.00002315 -.00255191  00000+0 -56887-2 0  9996
2 58969  53.1607 104.2092 0001175 101.8954  48.7095 15.43991174  4260
STARLINK-31368          
1 58970U 24031F   24068.24102352 -.01094314  00000+0 -30948-1 0  9996
2 58970  53.1593  93.6073 0001623 147.4922 212.6182 15.38512918  4555
STARLINK-31333          
1 58971U 24031G   24068.16668981 -.02224602  00000+0 -61547-1 0  9998
2 58971  53.1592  93.9403 0001116  93.1114 223.6740 15.39859705  4531
STARLINK-31351          
1 58972U 24031H   24066.83334491 -.00091243  00000+0 -19924-2 0  9991
2 58972  53.1603 100.2473 0001630  82.9446  27.0085 15.43889782  4372
STARLINK-31365          
1 58973U 24031J   24068.23763518 -.00451718  00000+0 -11127-1 0  9997
2 58973  53.1590  93.5862 0001623  56.7774 303.3387 15.41800396  4556
STARLINK-31361          
1 58974U 24031K   24068.23799560 -.00672650  00000+0 -16648-1 0  9997
2 58974  53.1589  93.5885 0001808  52.1805 307.9364 15.42124298  4556
STARLINK-31369          
1 58975U 24031L   24065.13050842  .02930787  00000+0  40510-1 0  9990
2 58975  53.1604 108.3247 0020950 289.1552  70.7191 15.52621772  4050
STARLINK-31324          
1 58976U 24031M   24068.23661141 -.00313571  00000+0 -71696-2 0  9991
2 58976  53.1591  93.5786 0002081  98.6473 261.4769 15.43469706  4551
STARLINK-31358          
1 58977U 24031N   24066.06910765  .00177657  00000+0  17749-2 0  9990
2 58977  53.1609 103.5111 0002789  69.2335 290.8980 15.64541219  4220
STARLINK-31355          
1 58978U 24031P   24068.58335648 -.02442305  00000+0 -60342-1 0  9996
2 58978  53.1584  91.9281 0001609  74.0922  57.9623 15.43549454  4634
STARLINK-31353          
1 58980U 24031R   24068.23500720  .00018627  00000+0  41212-3 0  9995
2 58980  53.1591  93.5686 0001845  80.5028 279.6187 15.43877291  4500
STARLINK-31339          
1 58981U 24031S   24068.23531614  .00014668  00000+0  32673-3 0  9994
2 58981  53.1590  93.5707 0002006  89.4119 270.7118 15.43867720  4550
STARLINK-31360          
1 58982U 24031T   24068.23469766  .00086686  00000+0  18685-2 0  9998
2 58982  53.1590  93.5672 0001763  84.2453 275.8755 15.43871005  4559
STARLINK-31384          
1 58983U 24031U   24068.16668981 -.00063607  00000+0 -13811-2 0  9997
2 58983  53.1590  93.8855 0001558  77.0103 266.6283 15.43892389  4541
STARLINK-31379          
1 58984U 24031V   24068.16668981 -.00020287  00000+0 -43213-3 0  9995
2 58984  53.1590  93.8819 0001480  85.6509 259.7092 15.43871432  4548
STARLINK-31385          
1 58985U 24031W   24068.16668981  .00087545  00000+0  83460-3 0  9992
2 58985  53.1601  92.2323 0000822  76.0304   9.9173 15.66077259  4568
STARLINK-31229          
1 58986U 24031X   24068.29850624  .00009109  00000+0  20649-3 0  9994
2 58986  53.1590  93.2522 0001843  95.5874 264.5343 15.43870094  4561
STARLINK-31468          
1 58998U 24036A   24066.91667824 -.01673093  00000+0 -19584-1 0  9993
2 58998  53.1605 241.6727 0000782  78.0688 306.9062 15.64201052  3166
STARLINK-31440          
1 58999U 24036B   24068.08334491 -.01764612  00000+0 -24143-1 0  9990
2 58999  53.1606 235.9808 0000808  88.9444  22.2590 15.59869928  3051
STARLINK-31529          
1 59000U 24036C   24068.08334491 -.01770069  00000+0 -24225-1 0  9998
2 59000  53.1605 235.9762 0000920 101.3711  11.7971 15.59870729  3322
STARLINK-31525          
1 59001U 24036D   24068.50001157 -.01738298  00000+0 -25216-1 0  9995
2 59001  53.1608 233.9495 0000868 105.4503 189.6025 15.58294696  3396
STARLINK-31431          
1 59002U 24036E   24067.08334491  .00193947  00000+0  18105-2 0  9991
2 59002  53.1598 240.8345 0000368 147.0570 107.6619 15.66188692  3191
STARLINK-31429          
1 59003U 24036F   24068.50001157 -.01733670  00000+0 -25154-1 0  9997
2 59003  53.1609 233.9418 0000460  61.9847 236.9907 15.58284451  3426
STARLINK-31435          
1 59004U 24036G   24068.08334491 -.01765906  00000+0 -24175-1 0  9990
2 59004  53.1603 235.9600 0001046  79.7627  41.2684 15.59854726  3349
STARLINK-31484          
1 59005U 24036H   24068.08334491 -.01761871  00000+0 -24119-1 0  9996
2 59005  53.1604 235.9560 0001070  78.4908  44.5072 15.59848209  3381
STARLINK-31450          
1 59006U 24036J   24068.08334491 -.01760717  00000+0 -24108-1 0  9993
2 59006  53.1602 235.9476 0001007  86.6529  40.2762 15.59841556  3327
STARLINK-31456          
1 59007U 24036K   24068.08334491 -.01765456  00000+0 -24174-1 0  9992
2 59007  53.1602 235.9519 0001099  84.2904  40.6722 15.59847907  3324
STARLINK-31460          
1 59008U 24036L   24067.33334491  .00147925  00000+0  14364-2 0  9993
2 59008  53.1601 239.5865 0001278 137.4709  97.2538 15.65367268  3216
STARLINK-31488          
1 59009U 24036M   24068.08334491 -.01767815  00000+0 -24218-1 0  9994
2 59009  53.1603 235.9398 0001090  73.9907  56.8683 15.59839623  3322
STARLINK-31528          
1 59010U 24036N   24068.08334491 -.01765788  00000+0 -24194-1 0  9996
2 59010  53.1604 235.9313 0001063  85.3396  49.4506 15.59832255  3327
STARLINK-31491          
1 59011U 24036P   24068.08334491 -.01762229  00000+0 -24140-1 0  9995
2 59011  53.1603 235.9355 0000975  76.8077  56.0192 15.59832382  3321
STARLINK-31465          
1 59012U 24036Q   24068.08334491 -.01764051  00000+0 -24172-1 0  9996
2 59012  53.1604 235.9273 0001000  89.9147  46.8424 15.59827819  3329
STARLINK-31389          
1 59013U 24036R   24068.08334491 -.01763841  00000+0 -24172-1 0  9993
2 59013  53.1604 235.9231 0000986  91.4427  47.2802 15.59824474  3380
STARLINK-31454          
1 59014U 24036S   24068.08334491 -.01772294  00000+0 -24299-1 0  9996
2 59014  53.1604 235.9191 0000965  91.4463  49.2389 15.59827708  3322
STARLINK-31521          
1 59015U 24036T   24068.08334491 -.01767317  00000+0 -24229-1 0  9990
2 59015  53.1603 235.9152 0000973  87.8369  54.8160 15.59820718  3325
STARLINK-31526          
1 59016U 24036U   24068.16668981 -.01157181  00000+0 -65131-2 0  9994
2 59016  53.1636 234.6963 0000840  94.5472 196.2674 15.81041368  3356
STARLINK-31406          
1 59017U 24036V   24068.50001157 -.01740250  00000+0 -25296-1 0  9991
2 59017  53.1604 233.8850 0000869 103.6444 222.7801 15.58244415  3393
STARLINK-31527          
1 59018U 24036W   24068.08334491 -.01751287  00000+0 -20297-1 0  9993
2 59018  53.1601 235.8751 0001539  67.8345  95.1474 15.64072355  3330
STARLINK-31436          
1 59019U 24036X   24068.08334491 -.01764095  00000+0 -24194-1 0  9995
2 59019  53.1601 235.8989 0000986  96.7355  53.7812 15.59805040  3325
STARLINK-30996          
1 59023U 24038A   24068.08334491 -.01071922  00000+0 -64714-2 0  9995
2 59023  43.0045 194.7977 0001967 269.2227 143.6281 15.79090933  2906
STARLINK-31006          
1 59024U 24038B   24068.08334491 -.00913106  00000+0 -40792-2 0  9994
2 59024  43.0039 194.4766 0002026 264.2095 276.0375 15.85451402  2913
STARLINK-31178          
1 59025U 24038C   24068.08334491 -.01083838  00000+0 -65529-2 0  9991
2 59025  43.0041 194.7867 0001841 263.3962 153.7698 15.79087038  2652
STARLINK-31227          
1 59026U 24038D   24068.08334491 -.01091525  00000+0 -66019-2 0  9999
2 59026  43.0042 194.7814 0001947 267.6182 151.6225 15.79094801  2912
STARLINK-30863          
1 59027U 24038E   24068.08334491 -.01100705  00000+0 -66604-2 0  9991
2 59027  43.0042 194.7708 0001857 264.4897 158.8730 15.79106608  2811
